[{"OBJECT_NAME":"STARLINK-1704","OBJECT_ID":"2021-012F","EPOCH":"2026-03-09T08:31:59.662560","MEAN_MOTION":15.43808127,"ECCENTRICITY":0.00011238,"INCLINATION":53.0526,"RA_OF_ASC_NODE":64.3372,"ARG_OF_PERICENTER":164.7307,"MEAN_ANOMALY":195.3732,"EPHEMERIS_TYPE":0,"CLASSIFICATION_TYPE":"U","NORAD_CAT_ID":47625,"ELEMENT_SET_NO":999,"REV_AT_EPOCH":28005,"BSTAR":0.0010933867,"MEAN_MOTION_DOT":0.00050206,"MEAN_MOTION_DDOT":0},{"OBJECT_NAME":"SIT-HSE","OBJECT_ID":"2024-199AE","EPOCH":"2026-03-09T22:33:27.365184","MEAN_MOTION":15.47455321,"ECCENTRICITY":0.00045337,"INCLINATION":97.3131,"RA_OF_ASC_NODE":303.904,"ARG_OF_PERICENTER":302.8668,"MEAN_ANOMALY":57.2146,"EPHEMERIS_TYPE":0,"CLASSIFICATION_TYPE":"U","NORAD_CAT_ID":61763,"ELEMENT_SET_NO":999,"REV_AT_EPOCH":12221,"BSTAR":0.00051198137,"MEAN_MOTION_DOT":0.00026224,"MEAN_MOTION_DDOT":0}]
